[{"OBJECT_NAME":"STARLINK-32188","OBJECT_ID":"2024-138L","EPOCH":"2026-01-09T07:07:08.973696","MEAN_MOTION":15.30208143,"ECCENTRICITY":0.00012129,"INCLINATION":53.1564,"RA_OF_ASC_NODE":225.5214,"ARG_OF_PERICENTER":91.6817,"MEAN_ANOMALY":268.4323,"EPHEMERIS_TYPE":0,"CLASSIFICATION_TYPE":"U","NORAD_CAT_ID":60365,"ELEMENT_SET_NO":999,"REV_AT_EPOCH":8153,"BSTAR":-1.1564319e-5,"MEAN_MOTION_DOT":-7.02e-6,"MEAN_MOTION_DDOT":0},{"OBJECT_NAME":"STARLINK-32230","OBJECT_ID":"2024-138M","EPOCH":"2026-01-09T07:25:23.708352","MEAN_MOTION":15.30179927,"ECCENTRICITY":0.00014686,"INCLINATION":53.1591,"RA_OF_ASC_NODE":225.6015,"ARG_OF_PERICENTER":97.0063,"MEAN_ANOMALY":263.1105,"EPHEMERIS_TYPE":0,"CLASSIFICATION_TYPE":"U","NORAD_CAT_ID":60366,"ELEMENT_SET_NO":999,"REV_AT_EPOCH":8153,"BSTAR":6.9717657e-5,"MEAN_MOTION_DOT":1.705e-5,"MEAN_MOTION_DDOT":0},{"OBJECT_NAME":"STARLINK-32243","OBJECT_ID":"2024-138N","EPOCH":"2026-01-09T07:10:11.655264","MEAN_MOTION":15.30190941,"ECCENTRICITY":0.0001183,"INCLINATION":53.1591,"RA_OF_ASC_NODE":225.5315,"ARG_OF_PERICENTER":95.1536,"MEAN_ANOMALY":264.96,"EPHEMERIS_TYPE":0,"CLASSIFICATION_TYPE":"U","NORAD_CAT_ID":60367,"ELEMENT_SET_NO":999,"REV_AT_EPOCH":8153,"BSTAR":1.417209e-6,"MEAN_MOTION_DOT":-3.17e-6,"MEAN_MOTION_DDOT":0},{"OBJECT_NAME":"STARLINK-32271","OBJECT_ID":"2024-138P","EPOCH":"2026-01-09T07:39:03.916512","MEAN_MOTION":15.30194822,"ECCENTRICITY":0.00013159,"INCLINATION":53.1596,"RA_OF_ASC_NODE":225.6609,"ARG_OF_PERICENTER":89.4201,"MEAN_ANOMALY":270.6951,"EPHEMERIS_TYPE":0,"CLASSIFICATION_TYPE":"U","NORAD_CAT_ID":60368,"ELEMENT_SET_NO":999,"REV_AT_EPOCH":8153,"BSTAR":2.9693432e-5,"MEAN_MOTION_DOT":5.2e-6,"MEAN_MOTION_DDOT":0},{"OBJECT_NAME":"STARLINK-32266","OBJECT_ID":"2024-138Q","EPOCH":"2026-01-09T20:00:00.999360","MEAN_MOTION":15.59066372,"ECCENTRICITY":0.0011759,"INCLINATION":53.1422,"RA_OF_ASC_NODE":204.5455,"ARG_OF_PERICENTER":208.7722,"MEAN_ANOMALY":89.6776,"EPHEMERIS_TYPE":0,"CLASSIFICATION_TYPE":"U","NORAD_CAT_ID":60369,"ELEMENT_SET_NO":999,"REV_AT_EPOCH":583,"BSTAR":0.0046244,"MEAN_MOTION_DOT":0.00385838,"MEAN_MOTION_DDOT":0},{"OBJECT_NAME":"STARLINK-32220","OBJECT_ID":"2024-138R","EPOCH":"2026-01-09T07:19:18.980256","MEAN_MOTION":15.3018734,"ECCENTRICITY":0.0001151,"INCLINATION":53.1591,"RA_OF_ASC_NODE":225.5717,"ARG_OF_PERICENTER":94.5937,"MEAN_ANOMALY":265.5196,"EPHEMERIS_TYPE":0,"CLASSIFICATION_TYPE":"U","NORAD_CAT_ID":60370,"ELEMENT_SET_NO":999,"REV_AT_EPOCH":8153,"BSTAR":-1.5176558e-5,"MEAN_MOTION_DOT":-8.08e-6,"MEAN_MOTION_DDOT":0},{"OBJECT_NAME":"STARLINK-32263","OBJECT_ID":"2024-138S","EPOCH":"2026-01-09T07:55:37.106112","MEAN_MOTION":15.30194734,"ECCENTRICITY":0.00013261,"INCLINATION":53.1597,"RA_OF_ASC_NODE":225.0222,"ARG_OF_PERICENTER":86.9213,"MEAN_ANOMALY":273.194,"EPHEMERIS_TYPE":0,"CLASSIFICATION_TYPE":"U","NORAD_CAT_ID":60371,"ELEMENT_SET_NO":999,"REV_AT_EPOCH":8144,"BSTAR":4.0843057e-5,"MEAN_MOTION_DOT":8.5e-6,"MEAN_MOTION_DDOT":0},{"OBJECT_NAME":"STARLINK-32268","OBJECT_ID":"2024-138T","EPOCH":"2026-01-09T07:40:35.421024","MEAN_MOTION":15.30184554,"ECCENTRICITY":0.00014695,"INCLINATION":53.1599,"RA_OF_ASC_NODE":225.6655,"ARG_OF_PERICENTER":90.7604,"MEAN_ANOMALY":269.3565,"EPHEMERIS_TYPE":0,"CLASSIFICATION_TYPE":"U","NORAD_CAT_ID":60372,"ELEMENT_SET_NO":999,"REV_AT_EPOCH":8153,"BSTAR":5.0728526e-5,"MEAN_MOTION_DOT":1.143e-5,"MEAN_MOTION_DDOT":0},{"OBJECT_NAME":"STARLINK-32223","OBJECT_ID":"2024-138U","EPOCH":"2026-01-09T07:11:42.904896","MEAN_MOTION":15.30190664,"ECCENTRICITY":0.00012011,"INCLINATION":53.1595,"RA_OF_ASC_NODE":225.5387,"ARG_OF_PERICENTER":91.5854,"MEAN_ANOMALY":268.5285,"EPHEMERIS_TYPE":0,"CLASSIFICATION_TYPE":"U","NORAD_CAT_ID":60373,"ELEMENT_SET_NO":999,"REV_AT_EPOCH":8143,"BSTAR":9.762127e-6,"MEAN_MOTION_DOT":-7.0e-7,"MEAN_MOTION_DDOT":0},{"OBJECT_NAME":"STARLINK-32180","OBJECT_ID":"2024-138V","EPOCH":"2026-01-09T07:14:45.183840","MEAN_MOTION":15.30205924,"ECCENTRICITY":0.00011398,"INCLINATION":53.1567,"RA_OF_ASC_NODE":225.5509,"ARG_OF_PERICENTER":94.4403,"MEAN_ANOMALY":265.6728,"EPHEMERIS_TYPE":0,"CLASSIFICATION_TYPE":"U","NORAD_CAT_ID":60374,"ELEMENT_SET_NO":999,"REV_AT_EPOCH":8153,"BSTAR":0.00032572852,"MEAN_MOTION_DOT":9.302e-5,"MEAN_MOTION_DDOT":0},{"OBJECT_NAME":"STARLINK-32281","OBJECT_ID":"2024-138W","EPOCH":"2026-01-08T21:10:54.942240","MEAN_MOTION":15.30191362,"ECCENTRICITY":0.0001184,"INCLINATION":53.1593,"RA_OF_ASC_NODE":227.2038,"ARG_OF_PERICENTER":98.081,"MEAN_ANOMALY":262.0325,"EPHEMERIS_TYPE":0,"CLASSIFICATION_TYPE":"U","NORAD_CAT_ID":60375,"ELEMENT_SET_NO":999,"REV_AT_EPOCH":8137,"BSTAR":-4.2774e-6,"MEAN_MOTION_DOT":-4.86e-6,"MEAN_MOTION_DDOT":0},{"OBJECT_NAME":"STARLINK-32277","OBJECT_ID":"2024-138X","EPOCH":"2026-01-08T21:59:33.010656","MEAN_MOTION":15.30189912,"ECCENTRICITY":0.000136,"INCLINATION":53.1591,"RA_OF_ASC_NODE":227.4101,"ARG_OF_PERICENTER":98.6768,"MEAN_ANOMALY":261.4387,"EPHEMERIS_TYPE":0,"CLASSIFICATION_TYPE":"U","NORAD_CAT_ID":60376,"ELEMENT_SET_NO":999,"REV_AT_EPOCH":8147,"BSTAR":2.5048e-5,"MEAN_MOTION_DOT":3.82e-6,"MEAN_MOTION_DDOT":0},{"OBJECT_NAME":"STARLINK-32269","OBJECT_ID":"2024-138Y","EPOCH":"2026-01-08T21:36:45.078336","MEAN_MOTION":15.3019831,"ECCENTRICITY":0.00012668,"INCLINATION":53.1571,"RA_OF_ASC_NODE":227.3111,"ARG_OF_PERICENTER":94.087,"MEAN_ANOMALY":266.0276,"EPHEMERIS_TYPE":0,"CLASSIFICATION_TYPE":"U","NORAD_CAT_ID":60377,"ELEMENT_SET_NO":999,"REV_AT_EPOCH":8147,"BSTAR":5.6920189e-5,"MEAN_MOTION_DOT":1.327e-5,"MEAN_MOTION_DDOT":0},{"OBJECT_NAME":"STARLINK-11228 [DTC]","OBJECT_ID":"2024-141A","EPOCH":"2026-01-09T07:00:52.528896","MEAN_MOTION":15.69702448,"ECCENTRICITY":0.00012433,"INCLINATION":53.1589,"RA_OF_ASC_NODE":19.088,"ARG_OF_PERICENTER":73.4358,"MEAN_ANOMALY":286.6797,"EPHEMERIS_TYPE":0,"CLASSIFICATION_TYPE":"U","NORAD_CAT_ID":60398,"ELEMENT_SET_NO":999,"REV_AT_EPOCH":8236,"BSTAR":-2.888036e-6,"MEAN_MOTION_DOT":-9.38e-6,"MEAN_MOTION_DDOT":0},{"OBJECT_NAME":"STARLINK-11182 [DTC]","OBJECT_ID":"2024-141B","EPOCH":"2026-01-09T06:39:41.272128","MEAN_MOTION":15.69703389,"ECCENTRICITY":0.00012171,"INCLINATION":53.1589,"RA_OF_ASC_NODE":18.9915,"ARG_OF_PERICENTER":82.7162,"MEAN_ANOMALY":277.3994,"EPHEMERIS_TYPE":0,"CLASSIFICATION_TYPE":"U","NORAD_CAT_ID":60399,"ELEMENT_SET_NO":999,"REV_AT_EPOCH":8241,"BSTAR":-1.898738e-6,"MEAN_MOTION_DOT":-8.19e-6,"MEAN_MOTION_DDOT":0},{"OBJECT_NAME":"STARLINK-11234 [DTC]","OBJECT_ID":"2024-141C","EPOCH":"2026-01-09T06:32:37.744512","MEAN_MOTION":15.69700849,"ECCENTRICITY":0.00016154,"INCLINATION":53.1598,"RA_OF_ASC_NODE":18.957,"ARG_OF_PERICENTER":102.8727,"MEAN_ANOMALY":257.2471,"EPHEMERIS_TYPE":0,"CLASSIFICATION_TYPE":"U","NORAD_CAT_ID":60400,"ELEMENT_SET_NO":999,"REV_AT_EPOCH":8236,"BSTAR":-1.2379037e-5,"MEAN_MOTION_DOT":-2.088e-5,"MEAN_MOTION_DDOT":0}]
