STARLINK-32188          
1 60365U 24138L   26009.29663164 -.00000702  00000+0 -11564-4 0  9993
2 60365  53.1564 225.5214 0001212  91.6817 268.4323 15.30208143 81537
STARLINK-32230          
1 60366U 24138M   26009.30930218  .00001705  00000+0  69718-4 0  9999
2 60366  53.1591 225.6015 0001468  97.0063 263.1105 15.30179927 81531
STARLINK-32243          
1 60367U 24138N   26009.29874601 -.00000317  00000+0  14172-5 0  9995
2 60367  53.1591 225.5315 0001183  95.1536 264.9600 15.30190941 81530
STARLINK-32271          
1 60368U 24138P   26009.31879533  .00000520  00000+0  29693-4 0  9996
2 60368  53.1596 225.6609 0001315  89.4201 270.6951 15.30194822 81530
STARLINK-32266          
1 60369U 24138Q   26009.83334490  .00385838  00000+0  46244-2 0  9999
2 60369  53.1422 204.5455 0011759 208.7722  89.6776 15.59066372  5832
STARLINK-32220          
1 60370U 24138R   26009.30508079 -.00000808  00000+0 -15177-4 0  9995
2 60370  53.1591 225.5717 0001151  94.5937 265.5196 15.30187340 81539
STARLINK-32263          
1 60371U 24138S   26009.33029058  .00000850  00000+0  40843-4 0  9997
2 60371  53.1597 225.0222 0001326  86.9213 273.1940 15.30194734 81445
STARLINK-32268          
1 60372U 24138T   26009.31985441  .00001143  00000+0  50729-4 0  9993
2 60372  53.1599 225.6655 0001469  90.7604 269.3565 15.30184554 81538
STARLINK-32223          
1 60373U 24138U   26009.29980214 -.00000070  00000+0  97621-5 0  9996
2 60373  53.1595 225.5387 0001201  91.5854 268.5285 15.30190664 81434
STARLINK-32180          
1 60374U 24138V   26009.30191185  .00009302  00000+0  32573-3 0  9999
2 60374  53.1567 225.5509 0001139  94.4403 265.6728 15.30205924 81539
STARLINK-32281          
1 60375U 24138W   26008.88258035 -.00000486  00000+0 -42774-5 0  9992
2 60375  53.1593 227.2038 0001184  98.0810 262.0325 15.30191362 81373
STARLINK-32277          
1 60376U 24138X   26008.91635429  .00000382  00000+0  25048-4 0  9990
2 60376  53.1591 227.4101 0001360  98.6768 261.4387 15.30189912 81479
STARLINK-32269          
1 60377U 24138Y   26008.90052174  .00001327  00000+0  56920-4 0  9993
2 60377  53.1571 227.3111 0001266  94.0870 266.0276 15.30198310 81477
STARLINK-11228 [DTC]    
1 60398U 24141A   26009.29227464 -.00000938  00000+0 -28880-5 0  9993
2 60398  53.1589  19.0880 0001243  73.4358 286.6797 15.69702448 82365
STARLINK-11182 [DTC]    
1 60399U 24141B   26009.27756102 -.00000819  00000+0 -18987-5 0  9993
2 60399  53.1589  18.9915 0001217  82.7162 277.3994 15.69703389 82417
STARLINK-11234 [DTC]    
1 60400U 24141C   26009.27265908 -.00002088  00000+0 -12379-4 0  9993
2 60400  53.1598  18.9570 0001615 102.8727 257.2471 15.69700849 82369
